[{"OBJECT_NAME":"LIZZIESAT-3 (LS-3)","OBJECT_ID":"2025-052Z","EPOCH":"2026-03-09T23:14:46.856832","MEAN_MOTION":15.20716998,"ECCENTRICITY":0.00070924,"INCLINATION":97.4033,"RA_OF_ASC_NODE":322.5624,"ARG_OF_PERICENTER":136.4425,"MEAN_ANOMALY":223.7371,"EPHEMERIS_TYPE":0,"CLASSIFICATION_TYPE":"U","NORAD_CAT_ID":63233,"ELEMENT_SET_NO":999,"REV_AT_EPOCH":5472,"BSTAR":0.00032646441,"MEAN_MOTION_DOT":7.117e-5,"MEAN_MOTION_DDOT":0},{"OBJECT_NAME":"OBJECT Q","OBJECT_ID":"2025-313Q","EPOCH":"2026-03-09T22:26:39.769728","MEAN_MOTION":15.21804409,"ECCENTRICITY":0.0014523,"INCLINATION":97.401,"RA_OF_ASC_NODE":145.1966,"ARG_OF_PERICENTER":358.4503,"MEAN_ANOMALY":1.6686,"EPHEMERIS_TYPE":0,"CLASSIFICATION_TYPE":"U","NORAD_CAT_ID":67262,"ELEMENT_SET_NO":999,"REV_AT_EPOCH":1085,"BSTAR":0.00057243676,"MEAN_MOTION_DOT":0.00012974,"MEAN_MOTION_DDOT":0}]
